{
  "links" : {
    "next" : "https://api.nasa.gov/neo/rest/v1/feed?start_date=2006-09-09&end_date=2006-09-09&detailed=true&api_key=t0TVs3DtDT2H8Oy2Zy8m2eVrNsAVKAexjcZXUckd",
    "prev" : "https://api.nasa.gov/neo/rest/v1/feed?start_date=2006-09-07&end_date=2006-09-07&detailed=true&api_key=t0TVs3DtDT2H8Oy2Zy8m2eVrNsAVKAexjcZXUckd",
    "self" : "https://api.nasa.gov/neo/rest/v1/feed?start_date=2006-09-08&end_date=2006-09-08&detailed=true&api_key=t0TVs3DtDT2H8Oy2Zy8m2eVrNsAVKAexjcZXUckd"
  },
  "element_count" : 8,
  "near_earth_objects" : {
    "2006-09-08" : [ {
      "links" : {
        "self" : "https://api.nasa.gov/neo/rest/v1/neo/3627014?api_key=t0TVs3DtDT2H8Oy2Zy8m2eVrNsAVKAexjcZXUckd"
      },
      "neo_reference_id" : "3627014",
      "name" : "(2013 DB)",
      "nasa_jpl_url" : "http://ssd.jpl.nasa.gov/sbdb.cgi?sstr=3627014",
      "absolute_magnitude_h" : 25.6,
      "estimated_diameter" : {
        "kilometers" : {
          "estimated_diameter_min" : 0.0201629919,
          "estimated_diameter_max" : 0.0450858206
        },
        "meters" : {
          "estimated_diameter_min" : 20.1629919443,
          "estimated_diameter_max" : 45.0858206172
        },
        "miles" : {
          "estimated_diameter_min" : 0.0125286985,
          "estimated_diameter_max" : 0.0280150214
        },
        "feet" : {
          "estimated_diameter_min" : 66.1515504905,
          "estimated_diameter_max" : 147.9193637137
        }
      },
      "is_potentially_hazardous_asteroid" : false,
      "close_approach_data" : [ {
        "close_approach_date" : "2006-09-08",
        "epoch_date_close_approach" : 1157698800000,
        "relative_velocity" : {
          "kilometers_per_second" : "6.3115965016",
          "kilometers_per_hour" : "22721.7474056343",
          "miles_per_hour" : "14118.4102143509"
        },
        "miss_distance" : {
          "astronomical" : "0.2158941002",
          "lunar" : "83.9828033447",
          "kilometers" : "32297298",
          "miles" : "20068610"
        },
        "orbiting_body" : "Earth"
      } ],
      "orbital_data" : {
        "orbit_id" : "8",
        "orbit_determination_date" : "2017-04-06 08:46:43",
        "orbit_uncertainty" : "7",
        "minimum_orbit_intersection" : ".013373",
        "jupiter_tisserand_invariant" : "5.527",
        "epoch_osculation" : "2458000.5",
        "eccentricity" : ".1199593996063884",
        "semi_major_axis" : "1.126420232833336",
        "inclination" : "10.74649219074794",
        "ascending_node_longitude" : "147.4660909209379",
        "orbital_period" : "436.6657114529775",
        "perihelion_distance" : ".9912955379981605",
        "perihelion_argument" : "336.7675143427376",
        "aphelion_distance" : "1.261544927668511",
        "perihelion_time" : "2458064.455908125774",
        "mean_anomaly" : "307.2728764329414",
        "mean_motion" : ".8244292843652019",
        "equinox" : "J2000"
      }
    }, {
      "links" : {
        "self" : "https://api.nasa.gov/neo/rest/v1/neo/2468813?api_key=t0TVs3DtDT2H8Oy2Zy8m2eVrNsAVKAexjcZXUckd"
      },
      "neo_reference_id" : "2468813",
      "name" : "468813 (2012 OT5)",
      "nasa_jpl_url" : "http://ssd.jpl.nasa.gov/sbdb.cgi?sstr=2468813",
      "absolute_magnitude_h" : 21.8,
      "estimated_diameter" : {
        "kilometers" : {
          "estimated_diameter_min" : 0.1160259082,
          "estimated_diameter_max" : 0.2594418179
        },
        "meters" : {
          "estimated_diameter_min" : 116.0259082094,
          "estimated_diameter_max" : 259.4418179074
        },
        "miles" : {
          "estimated_diameter_min" : 0.0720951346,
          "estimated_diameter_max" : 0.1612096218
        },
        "feet" : {
          "estimated_diameter_min" : 380.6624406898,
          "estimated_diameter_max" : 851.1870938635
        }
      },
      "is_potentially_hazardous_asteroid" : false,
      "close_approach_data" : [ {
        "close_approach_date" : "2006-09-08",
        "epoch_date_close_approach" : 1157698800000,
        "relative_velocity" : {
          "kilometers_per_second" : "4.4347168796",
          "kilometers_per_hour" : "15964.9807665634",
          "miles_per_hour" : "9920.0181879794"
        },
        "miss_distance" : {
          "astronomical" : "0.4854785065",
          "lunar" : "188.8511505127",
          "kilometers" : "72626552",
          "miles" : "45128048"
        },
        "orbiting_body" : "Earth"
      } ],
      "orbital_data" : {
        "orbit_id" : "29",
        "orbit_determination_date" : "2017-04-06 09:19:18",
        "orbit_uncertainty" : "0",
        "minimum_orbit_intersection" : ".177959",
        "jupiter_tisserand_invariant" : "4.314",
        "epoch_osculation" : "2458000.5",
        "eccentricity" : ".2596372982559345",
        "semi_major_axis" : "1.602287853458038",
        "inclination" : "5.753640760087441",
        "ascending_node_longitude" : "129.1789915540096",
        "orbital_period" : "740.8140962068035",
        "perihelion_distance" : "1.186274164157892",
        "perihelion_argument" : "147.7682956395803",
        "aphelion_distance" : "2.018301542758183",
        "perihelion_time" : "2458325.748230052123",
        "mean_anomaly" : "201.9450123609987",
        "mean_motion" : ".4859518762444059",
        "equinox" : "J2000"
      }
    } ]
  }
}